ONEWEB-0027             
1 45432U 20020J   24058.54112536  .00000009  00000+0 -96908-5 0  9994
2 45432  87.9258 173.0701 0001483 120.8254 239.3024 13.17649655195652
ONEWEB-0064             
1 45433U 20020K   24058.62373637 -.00000581  00000+0 -16757-2 0  9992
2 45433  87.9025 188.1752 0001359 106.9227 253.2050 13.11417523192512
ONEWEB-0018             
1 45434U 20020L   24058.80881161  .00000588  00000+0  16244-2 0  9995
2 45434  87.9021 188.1326 0001737 102.4737 257.6585 13.11417295192497
ONEWEB-0083             
1 45435U 20020M   24058.64484844  .00000423  00000+0  11575-2 0  9995
2 45435  87.9024 188.1445 0001606 107.0784 253.0520 13.11419208192508
ONEWEB-0095             
1 45436U 20020N   24058.63687075  .00000142  00000+0  36566-3 0  9992
2 45436  87.9021 188.1838 0001753 118.6685 241.4620 13.11419557192502
ONEWEB-0092             
1 45437U 20020P   24058.60425492 -.00000299  00000+0 -87822-3 0  9999
2 45437  87.9020 188.1711 0001823 117.3351 242.7962 13.11414147192611
ONEWEB-0085             
1 45438U 20020Q   24058.63836207  .00000272  00000+0  73088-3 0  9991
2 45438  87.9023 188.1689 0001645  99.5033 260.6281 13.11418785192502
ONEWEB-0096             
1 45439U 20020R   24058.41757733  .00000806  00000+0  22378-2 0  9992
2 45439  87.9021 188.1846 0002737 106.4404 253.7024 13.11418226192462
